{"type": "FeatureCollection", "features": [ {"type": "Feature", "properties": {"norad_id": 34432, "name": "COSMOS 2251 DEB", "group": "cosmos-2251-debris", "lat": -8.719957287364874, "lon": 94.93715721899945, "alt_km": 1018.1637066018193, "timestamp": "2025-12-15T11:38:37.546381+00:00", "meta": {"OBJECT_NAME": "COSMOS 2251 DEB", "OBJECT_ID": "1993-036RZ", "EPOCH": "2025-12-14T17:25:48.713664", "MEAN_MOTION": 14.02918454, "ECCENTRICITY": 0.01823371, "INCLINATION": 73.8286, "RA_OF_ASC_NODE": 98.8245, "ARG_OF_PERICENTER": 181.2091, "MEAN_ANOMALY": 298.1459, "EPHEMERIS_TYPE": 0, "CLASSIFICATION_TYPE": "U", "NORAD_CAT_ID": 34432, "ELEMENT_SET_NO": 999, "REV_AT_EPOCH": 85712, "BSTAR": 0.0013134826, "MEAN_MOTION_DOT": 2.333e-05, "MEAN_MOTION_DDOT": 0}, "tle": {"line1": "1 34432U 93036RZ  25348.72625826  .00002333  00000+0  13135-2 0  9992", "line2": "2 34432  73.8286  98.8245 0182337 181.2091 298.1459 14.02918454857123"}}, "geometry": {"type": "Point", "coordinates": [94.93715721899945, -8.719957287364874]}}, {"type": "Feature", "properties": {"norad_id": 34433, "name": "COSMOS 2251 DEB", "group": "cosmos-2251-debris", "lat": 62.32639559128347, "lon": -63.066856673135675, "alt_km": 952.8361423714132, "timestamp": "2025-12-15T11:38:37.546391+00:00", "meta": {"OBJECT_NAME": "COSMOS 2251 DEB", "OBJECT_ID": "1993-036SA", "EPOCH": "2025-12-14T21:30:30.026304", "MEAN_MOTION": 14.12864438, "ECCENTRICITY": 0.01524021, "INCLINATION": 74.0104, "RA_OF_ASC_NODE": 151.1204, "ARG_OF_PERICENTER": 288.7552, "MEAN_ANOMALY": 69.7104, "EPHEMERIS_TYPE": 0, "CLASSIFICATION_TYPE": "U", "NORAD_CAT_ID": 34433, "ELEMENT_SET_NO": 999, "REV_AT_EPOCH": 85980, "BSTAR": 0.00094444681, "MEAN_MOTION_DOT": 1.936e-05, "MEAN_MOTION_DDOT": 0}, "tle": {"line1": "1 34433U 93036SA  25348.89618086  .00001936  00000+0  94445-3 0  9993", "line2": "2 34433  74.0104 151.1204 0152402 288.7552  69.7104 14.12864438859808"}}, "geometry": {"type": "Point", "coordinates": [-63.066856673135675, 62.32639559128347]}}, {"type": "Feature", "properties": {"norad_id": 34434, "name": "COSMOS 2251 DEB", "group": "cosmos-2251-debris", "lat": 42.13415043266273, "lon": 170.47536981103403, "alt_km": 725.8983787899588, "timestamp": "2025-12-15T11:38:37.546401+00:00", "meta": {"OBJECT_NAME": "COSMOS 2251 DEB", "OBJECT_ID": "1993-036SB", "EPOCH": "2025-12-14T21:30:45.844416", "MEAN_MOTION": 13.89830005, "ECCENTRICITY": 0.02746112, "INCLINATION": 74.0635, "RA_OF_ASC_NODE": 6.4563, "ARG_OF_PERICENTER": 143.2624, "MEAN_ANOMALY": 287.9363, "EPHEMERIS_TYPE": 0, "CLASSIFICATION_TYPE": "U", "NORAD_CAT_ID": 34434, "ELEMENT_SET_NO": 999, "REV_AT_EPOCH": 83996, "BSTAR": 0.0030425047, "MEAN_MOTION_DOT": 5.048e-05, "MEAN_MOTION_DDOT": 0}, "tle": {"line1": "1 34434U 93036SB  25348.89636394  .00005048  00000+0  30425-2 0  9991", "line2": "2 34434  74.0635   6.4563 0274611 143.2624 287.9363 13.89830005839962"}}, "geometry": {"type": "Point", "coordinates": [170.47536981103403, 42.13415043266273]}}, {"type": "Feature", "properties": {"norad_id": 34446, "name": "COSMOS 2251 DEB", "group": "cosmos-2251-debris", "lat": -10.059889400519621, "lon": -124.95648602470708, "alt_km": 695.3153175391899, "timestamp": "2025-12-15T11:38:37.546410+00:00", "meta": {"OBJECT_NAME": "COSMOS 2251 DEB", "OBJECT_ID": "1993-036SP", "EPOCH": "2025-12-14T21:30:54.884448", "MEAN_MOTION": 14.49355499, "ECCENTRICITY": 0.0051049, "INCLINATION": 74.0422, "RA_OF_ASC_NODE": 53.2373, "ARG_OF_PERICENTER": 190.7726, "MEAN_ANOMALY": 169.2346, "EPHEMERIS_TYPE": 0, "CLASSIFICATION_TYPE": "U", "NORAD_CAT_ID": 34446, "ELEMENT_SET_NO": 999, "REV_AT_EPOCH": 88725, "BSTAR": 0.00014190453, "MEAN_MOTION_DOT": 5.23e-06, "MEAN_MOTION_DDOT": 0}, "tle": {"line1": "1 34446U 93036SP  25348.89646857  .00000523  00000+0  14190-3 0  9994", "line2": "2 34446  74.0422  53.2373 0051049 190.7726 169.2346 14.49355499887250"}}, "geometry": {"type": "Point", "coordinates": [-124.95648602470708, -10.059889400519621]}}, {"type": "Feature", "properties": {"norad_id": 34449, "name": "COSMOS 2251 DEB", "group": "cosmos-2251-debris", "lat": 62.949093976434426, "lon": 99.12548658461876, "alt_km": 563.0647558650608, "timestamp": "2025-12-15T11:38:37.546420+00:00", "meta": {"OBJECT_NAME": "COSMOS 2251 DEB", "OBJECT_ID": "1993-036SS", "EPOCH": "2025-12-14T16:37:11.993088", "MEAN_MOTION": 14.95027268, "ECCENTRICITY": 0.00229618, "INCLINATION": 74.0328, "RA_OF_ASC_NODE": 66.6191, "ARG_OF_PERICENTER": 107.6187, "MEAN_ANOMALY": 16.0636, "EPHEMERIS_TYPE": 0, "CLASSIFICATION_TYPE": "U", "NORAD_CAT_ID": 34449, "ELEMENT_SET_NO": 999, "REV_AT_EPOCH": 88722, "BSTAR": 0.002055933, "MEAN_MOTION_DOT": 0.00022654, "MEAN_MOTION_DDOT": 0}, "tle": {"line1": "1 34449U 93036SS  25348.69249992  .00022654  00000+0  20559-2 0  9998", "line2": "2 34449  74.0328  66.6191 0022961 107.6187  16.0636 14.95027268887222"}}, "geometry": {"type": "Point", "coordinates": [99.12548658461876, 62.949093976434426]}}, {"type": "Feature", "properties": {"norad_id": 34451, "name": "COSMOS 2251 DEB", "group": "cosmos-2251-debris", "lat": 43.41791178101485, "lon": 98.036299588046, "alt_km": 566.3550205192041, "timestamp": "2025-12-15T11:38:37.546430+00:00", "meta": {"OBJECT_NAME": "COSMOS 2251 DEB", "OBJECT_ID": "1993-036SU", "EPOCH": "2025-12-14T16:10:40.162944", "MEAN_MOTION": 14.95722036, "ECCENTRICITY": 0.00240934, "INCLINATION": 74.0459, "RA_OF_ASC_NODE": 83.9664, "ARG_OF_PERICENTER": 102.297, "MEAN_ANOMALY": 258.0914, "EPHEMERIS_TYPE": 0, "CLASSIFICATION_TYPE": "U", "NORAD_CAT_ID": 34451, "ELEMENT_SET_NO": 999, "REV_AT_EPOCH": 88664, "BSTAR": 0.002183225, "MEAN_MOTION_DOT": 0.0002451, "MEAN_MOTION_DDOT": 0}, "tle": {"line1": "1 34451U 93036SU  25348.67407596  .00024510  00000+0  21832-2 0  9993", "line2": "2 34451  74.0459  83.9664 0024093 102.2970 258.0914 14.95722036886643"}}, "geometry": {"type": "Point", "coordinates": [98.036299588046, 43.41791178101485]}}, {"type": "Feature", "properties": {"norad_id": 34452, "name": "COSMOS 2251 DEB", "group": "cosmos-2251-debris", "lat": -60.73852879683103, "lon": 146.41031926442483, "alt_km": 503.68343628661296, "timestamp": "2025-12-15T11:38:37.546440+00:00", "meta": {"OBJECT_NAME": "COSMOS 2251 DEB", "OBJECT_ID": "1993-036SV", "EPOCH": "2025-12-14T15:48:00.412704", "MEAN_MOTION": 15.11740211, "ECCENTRICITY": 0.00659631, "INCLINATION": 74.0348, "RA_OF_ASC_NODE": 178.8489, "ARG_OF_PERICENTER": 254.7664, "MEAN_ANOMALY": 221.7742, "EPHEMERIS_TYPE": 0, "CLASSIFICATION_TYPE": "U", "NORAD_CAT_ID": 34452, "ELEMENT_SET_NO": 999, "REV_AT_EPOCH": 90691, "BSTAR": 0.00061436643, "MEAN_MOTION_DOT": 0.0001101, "MEAN_MOTION_DDOT": 0}, "tle": {"line1": "1 34452U 93036SV  25348.65833811  .00011010  00000+0  61437-3 0  9992", "line2": "2 34452  74.0348 178.8489 0065963 254.7664 221.7742 15.11740211906917"}}, "geometry": {"type": "Point", "coordinates": [146.41031926442483, -60.73852879683103]}}, {"type": "Feature", "properties": {"norad_id": 34454, "name": "COSMOS 2251 DEB", "group": "cosmos-2251-debris", "lat": -30.293027066310778, "lon": -97.03021358121491, "alt_km": 742.6914667003366, "timestamp": "2025-12-15T11:38:37.546450+00:00", "meta": {"OBJECT_NAME": "COSMOS 2251 DEB", "OBJECT_ID": "1993-036SX", "EPOCH": "2025-12-14T20:46:15.849408", "MEAN_MOTION": 14.38811942, "ECCENTRICITY": 0.00356791, "INCLINATION": 74.0589, "RA_OF_ASC_NODE": 273.7224, "ARG_OF_PERICENTER": 335.8374, "MEAN_ANOMALY": 24.1105, "EPHEMERIS_TYPE": 0, "CLASSIFICATION_TYPE": "U", "NORAD_CAT_ID": 34454, "ELEMENT_SET_NO": 999, "REV_AT_EPOCH": 88098, "BSTAR": 0.00026881861, "MEAN_MOTION_DOT": 8.06e-06, "MEAN_MOTION_DDOT": 0}, "tle": {"line1": "1 34454U 93036SX  25348.86546122  .00000806  00000+0  26882-3 0  9999", "line2": "2 34454  74.0589 273.7224 0035679 335.8374  24.1105 14.38811942880982"}}, "geometry": {"type": "Point", "coordinates": [-97.03021358121491, -30.293027066310778]}}, {"type": "Feature", "properties": {"norad_id": 34459, "name": "COSMOS 2251 DEB", "group": "cosmos-2251-debris", "lat": -49.304290028470504, "lon": -130.07977807653467, "alt_km": 761.1061085825258, "timestamp": "2025-12-15T11:38:37.546460+00:00", "meta": {"OBJECT_NAME": "COSMOS 2251 DEB", "OBJECT_ID": "1993-036TC", "EPOCH": "2025-12-14T20:27:14.895072", "MEAN_MOTION": 14.00503353, "ECCENTRICITY": 0.01920843, "INCLINATION": 74.079, "RA_OF_ASC_NODE": 250.3976, "ARG_OF_PERICENTER": 319.7042, "MEAN_ANOMALY": 38.9985, "EPHEMERIS_TYPE": 0, "CLASSIFICATION_TYPE": "U", "NORAD_CAT_ID": 34459, "ELEMENT_SET_NO": 999, "REV_AT_EPOCH": 85741, "BSTAR": 0.0005091361, "MEAN_MOTION_DOT": 8.62e-06, "MEAN_MOTION_DDOT": 0}, "tle": {"line1": "1 34459U 93036TC  25348.85225573  .00000862  00000+0  50914-3 0  9992", "line2": "2 34459  74.0790 250.3976 0192084 319.7042  38.9985 14.00503353857417"}}, "geometry": {"type": "Point", "coordinates": [-130.07977807653467, -49.304290028470504]}}, {"type": "Feature", "properties": {"norad_id": 34464, "name": "COSMOS 2251 DEB", "group": "cosmos-2251-debris", "lat": -71.25848871419412, "lon": -49.751116501978586, "alt_km": 479.4453113910895, "timestamp": "2025-12-15T11:38:37.546470+00:00", "meta": {"OBJECT_NAME": "COSMOS 2251 DEB", "OBJECT_ID": "1993-036TH", "EPOCH": "2025-12-14T12:30:03.265632", "MEAN_MOTION": 15.27382523, "ECCENTRICITY": 0.00157154, "INCLINATION": 73.9898, "RA_OF_ASC_NODE": 74.4869, "ARG_OF_PERICENTER": 254.5361, "MEAN_ANOMALY": 105.4105, "EPHEMERIS_TYPE": 0, "CLASSIFICATION_TYPE": "U", "NORAD_CAT_ID": 34464, "ELEMENT_SET_NO": 999, "REV_AT_EPOCH": 89867, "BSTAR": 0.0028704859, "MEAN_MOTION_DOT": 0.00078026, "MEAN_MOTION_DDOT": 0}, "tle": {"line1": "1 34464U 93036TH  25348.52087113  .00078026  00000+0  28705-2 0  9997", "line2": "2 34464  73.9898  74.4869 0015715 254.5361 105.4105 15.27382523898672"}}, "geometry": {"type": "Point", "coordinates": [-49.751116501978586, -71.25848871419412]}}]}